[{"OBJECT_NAME":"HELIOS 1B","OBJECT_ID":"1999-064A","EPOCH":"2026-04-10T04:33:07.049088","MEAN_MOTION":14.87828131,"ECCENTRICITY":0.0001155,"INCLINATION":98.1662,"RA_OF_ASC_NODE":3.3547,"ARG_OF_PERICENTER":38.1775,"MEAN_ANOMALY":321.9522,"EPHEMERIS_TYPE":0,"CLASSIFICATION_TYPE":"U","NORAD_CAT_ID":25977,"ELEMENT_SET_NO":999,"REV_AT_EPOCH":68994,"BSTAR":0.00018391293,"MEAN_MOTION_DOT":1.622e-5,"MEAN_MOTION_DDOT":0},{"OBJECT_NAME":"TERRA","OBJECT_ID":"1999-068A","EPOCH":"2026-04-10T05:09:15.200064","MEAN_MOTION":14.61050425,"ECCENTRICITY":0.00036677,"INCLINATION":97.9529,"RA_OF_ASC_NODE":152.4346,"ARG_OF_PERICENTER":87.3943,"MEAN_ANOMALY":313.2102,"EPHEMERIS_TYPE":0,"CLASSIFICATION_TYPE":"U","NORAD_CAT_ID":25994,"ELEMENT_SET_NO":999,"REV_AT_EPOCH":39968,"BSTAR":9.5360121e-5,"MEAN_MOTION_DOT":4.24e-6,"MEAN_MOTION_DDOT":0},{"OBJECT_NAME":"SL-16 R/B","OBJECT_ID":"2000-006B","EPOCH":"2026-04-10T05:46:04.406592","MEAN_MOTION":14.15831044,"ECCENTRICITY":0.00149076,"INCLINATION":71.0045,"RA_OF_ASC_NODE":31.4941,"ARG_OF_PERICENTER":139.9911,"MEAN_ANOMALY":220.2313,"EPHEMERIS_TYPE":0,"CLASSIFICATION_TYPE":"U","NORAD_CAT_ID":26070,"ELEMENT_SET_NO":999,"REV_AT_EPOCH":35302,"BSTAR":-6.5204457e-5,"MEAN_MOTION_DOT":-1.76e-6,"MEAN_MOTION_DDOT":0},{"OBJECT_NAME":"TITAN 4B R/B","OBJECT_ID":"2000-047B","EPOCH":"2026-04-10T00:48:13.949856","MEAN_MOTION":15.09846912,"ECCENTRICITY":0.00410131,"INCLINATION":67.9891,"RA_OF_ASC_NODE":312.3557,"ARG_OF_PERICENTER":359.1228,"MEAN_ANOMALY":0.9842,"EPHEMERIS_TYPE":0,"CLASSIFICATION_TYPE":"U","NORAD_CAT_ID":26474,"ELEMENT_SET_NO":999,"REV_AT_EPOCH":39764,"BSTAR":0.00018266904,"MEAN_MOTION_DOT":2.882e-5,"MEAN_MOTION_DDOT":0},{"OBJECT_NAME":"ENVISAT","OBJECT_ID":"2002-009A","EPOCH":"2026-04-10T07:53:45.599136","MEAN_MOTION":14.39048691,"ECCENTRICITY":0.00011666,"INCLINATION":98.3776,"RA_OF_ASC_NODE":53.1834,"ARG_OF_PERICENTER":83.1757,"MEAN_ANOMALY":34.3302,"EPHEMERIS_TYPE":0,"CLASSIFICATION_TYPE":"U","NORAD_CAT_ID":27386,"ELEMENT_SET_NO":999,"REV_AT_EPOCH":26372,"BSTAR":5.4557355e-5,"MEAN_MOTION_DOT":1.26e-6,"MEAN_MOTION_DDOT":0},{"OBJECT_NAME":"IDEFIX & ARIANE 42P R/B","OBJECT_ID":"2002-021B","EPOCH":"2026-04-10T05:44:33.083520","MEAN_MOTION":14.31049085,"ECCENTRICITY":0.00129773,"INCLINATION":98.5902,"RA_OF_ASC_NODE":38.4756,"ARG_OF_PERICENTER":93.8775,"MEAN_ANOMALY":266.3891,"EPHEMERIS_TYPE":0,"CLASSIFICATION_TYPE":"U","NORAD_CAT_ID":27422,"ELEMENT_SET_NO":999,"REV_AT_EPOCH":24853,"BSTAR":0.00012134832,"MEAN_MOTION_DOT":2.76e-6,"MEAN_MOTION_DDOT":0},{"OBJECT_NAME":"AQUA","OBJECT_ID":"2002-022A","EPOCH":"2026-04-10T05:52:34.785120","MEAN_MOTION":14.62053603,"ECCENTRICITY":0.00016335,"INCLINATION":98.4225,"RA_OF_ASC_NODE":68.1976,"ARG_OF_PERICENTER":111.5921,"MEAN_ANOMALY":1.156,"EPHEMERIS_TYPE":0,"CLASSIFICATION_TYPE":"U","NORAD_CAT_ID":27424,"ELEMENT_SET_NO":999,"REV_AT_EPOCH":27334,"BSTAR":0.00020160255,"MEAN_MOTION_DOT":9.63e-6,"MEAN_MOTION_DDOT":0},{"OBJECT_NAME":"CZ-4B R/B","OBJECT_ID":"2002-024C","EPOCH":"2026-04-10T06:17:56.352192","MEAN_MOTION":14.14553583,"ECCENTRICITY":0.00491121,"INCLINATION":98.8774,"RA_OF_ASC_NODE":153.5002,"ARG_OF_PERICENTER":293.8083,"MEAN_ANOMALY":109.1352,"EPHEMERIS_TYPE":0,"CLASSIFICATION_TYPE":"U","NORAD_CAT_ID":27432,"ELEMENT_SET_NO":999,"REV_AT_EPOCH":23370,"BSTAR":4.2666473e-5,"MEAN_MOTION_DOT":3.8e-7,"MEAN_MOTION_DDOT":0},{"OBJECT_NAME":"MIDORI II (ADEOS-II)","OBJECT_ID":"2002-056A","EPOCH":"2026-04-10T03:58:24.573216","MEAN_MOTION":14.2931075,"ECCENTRICITY":1.231e-5,"INCLINATION":98.782,"RA_OF_ASC_NODE":58.8718,"ARG_OF_PERICENTER":55.4105,"MEAN_ANOMALY":304.7088,"EPHEMERIS_TYPE":0,"CLASSIFICATION_TYPE":"U","NORAD_CAT_ID":27597,"ELEMENT_SET_NO":999,"REV_AT_EPOCH":21479,"BSTAR":0.00014081454,"MEAN_MOTION_DOT":3.13e-6,"MEAN_MOTION_DDOT":0},{"OBJECT_NAME":"H-2A R/B","OBJECT_ID":"2002-056E","EPOCH":"2026-04-10T04:06:42.878304","MEAN_MOTION":14.33784713,"ECCENTRICITY":0.00713777,"INCLINATION":98.3254,"RA_OF_ASC_NODE":59.3491,"ARG_OF_PERICENTER":68.1645,"MEAN_ANOMALY":303.121,"EPHEMERIS_TYPE":0,"CLASSIFICATION_TYPE":"U","NORAD_CAT_ID":27601,"ELEMENT_SET_NO":999,"REV_AT_EPOCH":21862,"BSTAR":0.00013665996,"MEAN_MOTION_DOT":3.5e-6,"MEAN_MOTION_DDOT":0},{"OBJECT_NAME":"CZ-4B R/B","OBJECT_ID":"2003-049C","EPOCH":"2026-04-10T05:20:47.275296","MEAN_MOTION":14.55050112,"ECCENTRICITY":0.00489528,"INCLINATION":98.6899,"RA_OF_ASC_NODE":96.371,"ARG_OF_PERICENTER":134.533,"MEAN_ANOMALY":225.9881,"EPHEMERIS_TYPE":0,"CLASSIFICATION_TYPE":"U","NORAD_CAT_ID":28059,"ELEMENT_SET_NO":999,"REV_AT_EPOCH":19118,"BSTAR":9.5406547e-5,"MEAN_MOTION_DOT":3.67e-6,"MEAN_MOTION_DDOT":0},{"OBJECT_NAME":"CZ-2C R/B","OBJECT_ID":"2004-012C","EPOCH":"2026-04-10T03:58:29.968032","MEAN_MOTION":15.6860644,"ECCENTRICITY":0.0013908,"INCLINATION":97.7154,"RA_OF_ASC_NODE":168.5248,"ARG_OF_PERICENTER":188.9381,"MEAN_ANOMALY":171.1634,"EPHEMERIS_TYPE":0,"CLASSIFICATION_TYPE":"U","NORAD_CAT_ID":28222,"ELEMENT_SET_NO":999,"REV_AT_EPOCH":20920,"BSTAR":0.00053037266,"MEAN_MOTION_DOT":0.00060625,"MEAN_MOTION_DDOT":0},{"OBJECT_NAME":"SL-16 R/B","OBJECT_ID":"2004-021B","EPOCH":"2026-04-10T04:58:02.138016","MEAN_MOTION":14.14604037,"ECCENTRICITY":0.00058897,"INCLINATION":71.0011,"RA_OF_ASC_NODE":166.354,"ARG_OF_PERICENTER":329.1835,"MEAN_ANOMALY":30.8941,"EPHEMERIS_TYPE":0,"CLASSIFICATION_TYPE":"U","NORAD_CAT_ID":28353,"ELEMENT_SET_NO":999,"REV_AT_EPOCH":12729,"BSTAR":0.0001312134,"MEAN_MOTION_DOT":2.05e-6,"MEAN_MOTION_DDOT":0},{"OBJECT_NAME":"CZ-4B R/B","OBJECT_ID":"2004-035C","EPOCH":"2026-04-10T01:17:22.254720","MEAN_MOTION":15.29637936,"ECCENTRICITY":0.00307295,"INCLINATION":97.345,"RA_OF_ASC_NODE":133.9235,"ARG_OF_PERICENTER":214.4233,"MEAN_ANOMALY":145.5018,"EPHEMERIS_TYPE":0,"CLASSIFICATION_TYPE":"U","NORAD_CAT_ID":28415,"ELEMENT_SET_NO":999,"REV_AT_EPOCH":18470,"BSTAR":0.00024826618,"MEAN_MOTION_DOT":7.154e-5,"MEAN_MOTION_DDOT":0},{"OBJECT_NAME":"CZ-2C R/B","OBJECT_ID":"2004-046B","EPOCH":"2026-04-10T04:17:32.287488","MEAN_MOTION":14.27005444,"ECCENTRICITY":0.01405141,"INCLINATION":98.1973,"RA_OF_ASC_NODE":13.2004,"ARG_OF_PERICENTER":61.9918,"MEAN_ANOMALY":299.5399,"EPHEMERIS_TYPE":0,"CLASSIFICATION_TYPE":"U","NORAD_CAT_ID":28480,"ELEMENT_SET_NO":999,"REV_AT_EPOCH":11299,"BSTAR":7.9381702e-5,"MEAN_MOTION_DOT":1.74e-6,"MEAN_MOTION_DDOT":0},{"OBJECT_NAME":"ARIANE 5 R/B","OBJECT_ID":"2004-049H","EPOCH":"2026-04-10T05:28:07.563648","MEAN_MOTION":14.85330982,"ECCENTRICITY":0.00828802,"INCLINATION":98.2674,"RA_OF_ASC_NODE":269.876,"ARG_OF_PERICENTER":248.5582,"MEAN_ANOMALY":110.6777,"EPHEMERIS_TYPE":0,"CLASSIFICATION_TYPE":"U","NORAD_CAT_ID":28499,"ELEMENT_SET_NO":999,"REV_AT_EPOCH":15047,"BSTAR":0.0001107689,"MEAN_MOTION_DOT":9.46e-6,"MEAN_MOTION_DDOT":0},{"OBJECT_NAME":"CZ-2D R/B","OBJECT_ID":"2005-024B","EPOCH":"2026-04-10T07:11:34.161216","MEAN_MOTION":15.6324919,"ECCENTRICITY":0.00023158,"INCLINATION":97.3564,"RA_OF_ASC_NODE":116.6723,"ARG_OF_PERICENTER":231.2269,"MEAN_ANOMALY":128.8783,"EPHEMERIS_TYPE":0,"CLASSIFICATION_TYPE":"U","NORAD_CAT_ID":28738,"ELEMENT_SET_NO":999,"REV_AT_EPOCH":14471,"BSTAR":0.00049824982,"MEAN_MOTION_DOT":0.00045669,"MEAN_MOTION_DDOT":0}]
