HELIOS 1B               
1 25977U 99064A   26100.18966492  .00001622  00000+0  18391-3 0  9997
2 25977  98.1662   3.3547 0001155  38.1775 321.9522 14.87828131689942
TERRA                   
1 25994U 99068A   26100.21475926  .00000424  00000+0  95360-4 0  9992
2 25994  97.9529 152.4346 0003667  87.3943 313.2102 14.61050425399688
SL-16 R/B               
1 26070U 00006B   26100.24032878 -.00000176  00000+0 -65204-4 0  9990
2 26070  71.0045  31.4941 0014907 139.9911 220.2313 14.15831044353027
TITAN 4B R/B            
1 26474U 00047B   26100.03349479  .00002882  00000+0  18267-3 0  9998
2 26474  67.9891 312.3557 0041013 359.1228   0.9842 15.09846912397647
ENVISAT                 
1 27386U 02009A   26100.32899999  .00000126  00000+0  54557-4 0  9992
2 27386  98.3776  53.1834 0001166  83.1757  34.3302 14.39048691263727
IDEFIX & ARIANE 42P R/B 
1 27422U 02021B   26100.23927180  .00000276  00000+0  12135-3 0  9992
2 27422  98.5902  38.4756 0012977  93.8775 266.3891 14.31049085248532
AQUA                    
1 27424U 02022A   26100.24484705  .00000963  00000+0  20160-3 0  9997
2 27424  98.4225  68.1976 0001633 111.5921   1.1560 14.62053603273343
CZ-4B R/B               
1 27432U 02024C   26100.26245778  .00000038  00000+0  42666-4 0  9994
2 27432  98.8774 153.5002 0049112 293.8083 109.1352 14.14553583233704
MIDORI II (ADEOS-II)    
1 27597U 02056A   26100.16556219  .00000313  00000+0  14081-3 0  9990
2 27597  98.7820  58.8718 0000123  55.4105 304.7088 14.29310750214794
H-2A R/B                
1 27601U 02056E   26100.17132961  .00000350  00000+0  13666-3 0  9990
2 27601  98.3254  59.3491 0071377  68.1645 303.1210 14.33784713218625
CZ-4B R/B               
1 28059U 03049C   26100.22276939  .00000367  00000+0  95407-4 0  9993
2 28059  98.6899  96.3710 0048952 134.5330 225.9881 14.55050112191187
CZ-2C R/B               
1 28222U 04012C   26100.16562463  .00060625  00000+0  53037-3 0  9994
2 28222  97.7154 168.5248 0013908 188.9381 171.1634 15.68606440209200
SL-16 R/B               
1 28353U 04021B   26100.20696919  .00000205  00000+0  13121-3 0  9996
2 28353  71.0011 166.3540 0005889 329.1835  30.8941 14.14604037127295
CZ-4B R/B               
1 28415U 04035C   26100.05372980  .00007154  00000+0  24827-3 0  9997
2 28415  97.3450 133.9235 0030729 214.4233 145.5018 15.29637936184701
CZ-2C R/B               
1 28480U 04046B   26100.17884592  .00000174  00000+0  79382-4 0  9993
2 28480  98.1973  13.2004 0140514  61.9918 299.5399 14.27005444112999
ARIANE 5 R/B            
1 28499U 04049H   26100.22786532  .00000946  00000+0  11077-3 0  9990
2 28499  98.2674 269.8760 0082880 248.5582 110.6777 14.85330982150477
CZ-2D R/B               
1 28738U 05024B   26100.29970094  .00045669  00000+0  49825-3 0  9998
2 28738  97.3564 116.6723 0002315 231.2269 128.8783 15.63249190144710
